{
  "type": "FeatureCollection",
  "features": [
    {
      "type": "Feature",
      "properties": {
        "norad_id": 39766,
        "name": "ALOS-2",
        "group": "resource",
        "lat": 24.58443368542623,
        "lon": 69.47332165035634,
        "alt_km": 630.2574725814911,
        "timestamp": "2025-12-04T03:47:54.210785+00:00",
        "meta_object_name": "ALOS-2",
        "meta_object_id": "2014-029A",
        "meta_epoch": "2025-12-03T13:04:39.315072",
        "meta_mean_motion": 14.79450558,
        "meta_eccentricity": 0.0001522,
        "meta_inclination": 97.9237,
        "meta_ra_of_asc_node": 72.5221,
        "meta_arg_of_pericenter": 108.6147,
        "meta_mean_anomaly": 251.523,
        "meta_ephemeris_type": 0,
        "meta_classification_type": "U",
        "meta_norad_cat_id": 39766,
        "meta_element_set_no": 999,
        "meta_rev_at_epoch": 62265,
        "meta_bstar": 0.00041575,
        "meta_mean_motion_dot": 3.053e-05,
        "meta_mean_motion_ddot": 0,
        "tle_line1": "1 39766U 14029A   25337.54489948  .00003053  00000+0  41575-3 0  9993",
        "tle_line2": "2 39766  97.9237  72.5221 0001522 108.6147 251.5230 14.79450558622653"
      },
      "geometry": {
        "type": "Point",
        "coordinates": [
          69.47332165035634,
          24.58443368542623
        ]
      }
    },
    {
      "type": "Feature",
      "properties": {
        "norad_id": 40010,
        "name": "KAZEOSAT 2",
        "group": "resource",
        "lat": 59.513302248764376,
        "lon": 15.936733224794795,
        "alt_km": 609.8719512542275,
        "timestamp": "2025-12-04T03:47:54.210795+00:00",
        "meta_object_name": "KAZEOSAT 2",
        "meta_object_id": "2014-033A",
        "meta_epoch": "2025-12-03T19:10:34.372416",
        "meta_mean_motion": 14.85144096,
        "meta_eccentricity": 0.0007251,
        "meta_inclination": 97.5511,
        "meta_ra_of_asc_node": 182.5748,
        "meta_arg_of_pericenter": 240.1332,
        "meta_mean_anomaly": 119.9164,
        "meta_ephemeris_type": 0,
        "meta_classification_type": "U",
        "meta_norad_cat_id": 40010,
        "meta_element_set_no": 999,
        "meta_rev_at_epoch": 61995,
        "meta_bstar": 0.00014897,
        "meta_mean_motion_dot": 1.225e-05,
        "meta_mean_motion_ddot": 0,
        "tle_line1": "1 40010U 14033A   25337.79900894  .00001225  00000+0  14897-3 0  9993",
        "tle_line2": "2 40010  97.5511 182.5748 0007251 240.1332 119.9164 14.85144096619953"
      },
      "geometry": {
        "type": "Point",
        "coordinates": [
          15.936733224794795,
          59.513302248764376
        ]
      }
    },
    {
      "type": "Feature",
      "properties": {
        "norad_id": 40011,
        "name": "HODOYOSHI-4",
        "group": "resource",
        "lat": 43.25352274999672,
        "lon": -5.375200456348749,
        "alt_km": 603.4570478543037,
        "timestamp": "2025-12-04T03:47:54.210805+00:00",
        "meta_object_name": "HODOYOSHI-4",
        "meta_object_id": "2014-033B",
        "meta_epoch": "2025-12-03T19:06:48.473568",
        "meta_mean_motion": 14.87427393,
        "meta_eccentricity": 0.002267,
        "meta_inclination": 97.5415,
        "meta_ra_of_asc_node": 167.121,
        "meta_arg_of_pericenter": 231.3177,
        "meta_mean_anomaly": 128.6012,
        "meta_ephemeris_type": 0,
        "meta_classification_type": "U",
        "meta_norad_cat_id": 40011,
        "meta_element_set_no": 999,
        "meta_rev_at_epoch": 61975,
        "meta_bstar": 0.00034229,
        "meta_mean_motion_dot": 3.06e-05,
        "meta_mean_motion_ddot": 0,
        "tle_line1": "1 40011U 14033B   25337.79639437  .00003060  00000+0  34229-3 0  9996",
        "tle_line2": "2 40011  97.5415 167.1210 0022670 231.3177 128.6012 14.87427393619754"
      },
      "geometry": {
        "type": "Point",
        "coordinates": [
          -5.375200456348749,
          43.25352274999672
        ]
      }
    },
    {
      "type": "Feature",
      "properties": {
        "norad_id": 40013,
        "name": "DEIMOS-2",
        "group": "resource",
        "lat": 54.828689931298115,
        "lon": 45.17361293218312,
        "alt_km": 583.2326802249563,
        "timestamp": "2025-12-04T03:47:54.210816+00:00",
        "meta_object_name": "DEIMOS-2",
        "meta_object_id": "2014-033D",
        "meta_epoch": "2025-12-03T20:48:31.816224",
        "meta_mean_motion": 14.92906097,
        "meta_eccentricity": 8.19e-05,
        "meta_inclination": 97.6072,
        "meta_ra_of_asc_node": 213.9592,
        "meta_arg_of_pericenter": 89.553,
        "meta_mean_anomaly": 270.5783,
        "meta_ephemeris_type": 0,
        "meta_classification_type": "U",
        "meta_norad_cat_id": 40013,
        "meta_element_set_no": 999,
        "meta_rev_at_epoch": 60857,
        "meta_bstar": 0.0004151,
        "meta_mean_motion_dot": 4.251e-05,
        "meta_mean_motion_ddot": 0,
        "tle_line1": "1 40013U 14033D   25337.86703491  .00004251  00000+0  41510-3 0  9992",
        "tle_line2": "2 40013  97.6072 213.9592 0000819  89.5530 270.5783 14.92906097608575"
      },
      "geometry": {
        "type": "Point",
        "coordinates": [
          45.17361293218312,
          54.828689931298115
        ]
      }
    },
    {
      "type": "Feature",
      "properties": {
        "norad_id": 40015,
        "name": "HODOYOSHI-3",
        "group": "resource",
        "lat": 35.54230346818588,
        "lon": -30.145973035413792,
        "alt_km": 627.2406139297427,
        "timestamp": "2025-12-04T03:47:54.210826+00:00",
        "meta_object_name": "HODOYOSHI-3",
        "meta_object_id": "2014-033F",
        "meta_epoch": "2025-12-03T10:58:29.727264",
        "meta_mean_motion": 14.84753679,
        "meta_eccentricity": 0.0031834,
        "meta_inclination": 97.6193,
        "meta_ra_of_asc_node": 143.6962,
        "meta_arg_of_pericenter": 279.7374,
        "meta_mean_anomaly": 80.0247,
        "meta_ephemeris_type": 0,
        "meta_classification_type": "U",
        "meta_norad_cat_id": 40015,
        "meta_element_set_no": 999,
        "meta_rev_at_epoch": 61857,
        "meta_bstar": 0.00032694,
        "meta_mean_motion_dot": 2.744e-05,
        "meta_mean_motion_ddot": 0,
        "tle_line1": "1 40015U 14033F   25337.45728851  .00002744  00000+0  32694-3 0  9994",
        "tle_line2": "2 40015  97.6193 143.6962 0031834 279.7374  80.0247 14.84753679618578"
      },
      "geometry": {
        "type": "Point",
        "coordinates": [
          -30.145973035413792,
          35.54230346818588
        ]
      }
    },
    {
      "type": "Feature",
      "properties": {
        "norad_id": 40053,
        "name": "SPOT 7",
        "group": "resource",
        "lat": -67.4688306379849,
        "lon": -159.62497439462948,
        "alt_km": 699.0725286964571,
        "timestamp": "2025-12-04T03:47:54.210836+00:00",
        "meta_object_name": "SPOT 7",
        "meta_object_id": "2014-034A",
        "meta_epoch": "2025-12-03T20:05:11.655744",
        "meta_mean_motion": 14.60715002,
        "meta_eccentricity": 0.0001523,
        "meta_inclination": 98.0918,
        "meta_ra_of_asc_node": 40.1172,
        "meta_arg_of_pericenter": 96.9186,
        "meta_mean_anomaly": 263.2188,
        "meta_ephemeris_type": 0,
        "meta_classification_type": "U",
        "meta_norad_cat_id": 40053,
        "meta_element_set_no": 999,
        "meta_rev_at_epoch": 60861,
        "meta_bstar": 0.00019871,
        "meta_mean_motion_dot": 9.23e-06,
        "meta_mean_motion_ddot": 0,
        "tle_line1": "1 40053U 14034A   25337.83694046  .00000923  00000+0  19871-3 0  9996",
        "tle_line2": "2 40053  98.0918  40.1172 0001523  96.9186 263.2188 14.60715002608611"
      },
      "geometry": {
        "type": "Point",
        "coordinates": [
          -159.62497439462948,
          -67.4688306379849
        ]
      }
    },
    {
      "type": "Feature",
      "properties": {
        "norad_id": 40072,
        "name": "SKYSAT-B",
        "group": "resource",
        "lat": 79.51652902818127,
        "lon": -131.2103491182014,
        "alt_km": 599.2717121392234,
        "timestamp": "2025-12-04T03:47:54.210846+00:00",
        "meta_object_name": "SKYSAT-B",
        "meta_object_id": "2014-037D",
        "meta_epoch": "2025-12-03T17:44:07.350144",
        "meta_mean_motion": 14.87271509,
        "meta_eccentricity": 0.0005411,
        "meta_inclination": 98.3594,
        "meta_ra_of_asc_node": 280.9707,
        "meta_arg_of_pericenter": 178.0592,
        "meta_mean_anomaly": 182.0644,
        "meta_ephemeris_type": 0,
        "meta_classification_type": "U",
        "meta_norad_cat_id": 40072,
        "meta_element_set_no": 999,
        "meta_rev_at_epoch": 61690,
        "meta_bstar": 0.0003521,
        "meta_mean_motion_dot": 3.115e-05,
        "meta_mean_motion_ddot": 0,
        "tle_line1": "1 40072U 14037D   25337.73897396  .00003115  00000+0  35210-3 0  9993",
        "tle_line2": "2 40072  98.3594 280.9707 0005411 178.0592 182.0644 14.87271509616900"
      },
      "geometry": {
        "type": "Point",
        "coordinates": [
          -131.2103491182014,
          79.51652902818127
        ]
      }
    }
  ]
}